{"fetched_at":"2026-03-30T06:02:59Z","count":15439,"tles":[{"name":"STARLINK-11207 [DTC]","line1":"1 60933U 24155K   26087.83936904  .00000601  00000+0  98174-5 0  9993","line2":"2 60933  53.1577 246.5848 0000964  65.1685 294.9433 15.69709053 91412","category":"Starlink"}]}